ATLAS CENTAUR R/B       
1 06155U 72065B   26075.24743924  .00001304  00000+0  18082-3 0  9991
2 06155  35.0009 267.3224 0032953  64.6455 295.7653 14.77706594842230
SL-8 R/B                
1 08459U 75112B   26075.18076573  .00000243  00000+0  88416-4 0  9998
2 08459  74.0636   6.9722 0014436  97.5090 262.7705 14.38207755632808
SL-3 R/B                
1 10114U 77057B   26075.25793642  .00013234  00000+0  27580-3 0  9998
2 10114  97.5775 247.4694 0006155 256.5761 103.4802 15.45695000669345
SEASAT 1                
1 10967U 78064A   26075.13663554  .00000243  00000+0  10645-3 0  9998
2 10967 108.0096 139.0278 0002410 283.2094  76.8783 14.46165810507449
SL-14 R/B               
1 11267U 79011B   26075.08624719  .00000651  00000+0  61663-4 0  9999
2 11267  82.5203  90.4993 0017040  40.6775 319.5713 14.91916494529737
SL-8 R/B                
1 11574U 79089B   26075.26527992  .00000329  00000+0  10749-3 0  9990
2 11574  74.0668  78.8698 0017062 250.8616 109.0694 14.42355564437058
SL-14 R/B               
1 11672U 80005B   26075.10348131  .00000545  00000+0  52484-4 0  9991
2 11672  82.5134 301.1518 0016689 137.9141 222.3363 14.90938047477449
SL-8 R/B                
1 12139U 81003B   26075.02685205  .00022176  00000+0  56494-3 0  9994
2 12139  82.9376 284.1638 0261539 156.5551 204.7869 15.11251568315638
SL-3 R/B                
1 12465U 81046B   26075.27323666  .00011259  00000+0  26021-3 0  9993
2 12465  81.2289 281.8374 0019015 359.4821   0.6398 15.42172793439442
SL-3 R/B                
1 12904U 81103B   26075.28336996  .00005568  00000+0  24618-3 0  9992
2 12904  81.1596 205.6974 0012463 263.0070  96.9744 15.21464740974233
SL-3 R/B                
1 13068U 82013B   26075.28872752  .00004931  00000+0  21279-3 0  9993
2 13068  81.1762 153.0372 0023021 155.4034 204.8302 15.22085691405351
SL-3 R/B                
1 13154U 82039B   26075.28289987  .00002832  00000+0  17067-3 0  9997
2 13154  81.1577 208.3604 0029432 302.8876  56.9518 15.10122538382636
