CCSDS_OMM_VERS = 2.0
CREATION_DATE  = 
ORIGINATOR     = 

OBJECT_NAME    = ATLAS CENTAUR R/B
OBJECT_ID      = 1972-065B
CENTER_NAME    = EARTH
REF_FRAME      = TEME
TIME_SYSTEM    = UTC
MEAN_ELEMENT_THEORY = SGP/SGP4

EPOCH          = 2026-03-16T05:56:18.750336
MEAN_MOTION    = 14.77706594
ECCENTRICITY   = .0032953
INCLINATION    = 35.0009
RA_OF_ASC_NODE = 267.3224
ARG_OF_PERICENTER = 64.6455
MEAN_ANOMALY   = 295.7653

EPHEMERIS_TYPE = 0
CLASSIFICATION_TYPE = U
NORAD_CAT_ID   = 6155
ELEMENT_SET_NO = 999
REV_AT_EPOCH   = 84223
BSTAR          = .18081521E-3
MEAN_MOTION_DOT = .1304E-4
MEAN_MOTION_DDOT = 0

CCSDS_OMM_VERS = 2.0
CREATION_DATE  = 
ORIGINATOR     = 

OBJECT_NAME    = SL-8 R/B
OBJECT_ID      = 1975-112B
CENTER_NAME    = EARTH
REF_FRAME      = TEME
TIME_SYSTEM    = UTC
MEAN_ELEMENT_THEORY = SGP/SGP4

EPOCH          = 2026-03-16T04:20:18.159072
MEAN_MOTION    = 14.38207755
ECCENTRICITY   = .00144368
INCLINATION    = 74.0636
RA_OF_ASC_NODE = 6.9722
ARG_OF_PERICENTER = 97.5090
MEAN_ANOMALY   = 262.7705

EPHEMERIS_TYPE = 0
CLASSIFICATION_TYPE = U
NORAD_CAT_ID   = 8459
ELEMENT_SET_NO = 999
REV_AT_EPOCH   = 63280
BSTAR          = .88415788E-4
MEAN_MOTION_DOT = .243E-5
MEAN_MOTION_DDOT = 0

CCSDS_OMM_VERS = 2.0
CREATION_DATE  = 
ORIGINATOR     = 

OBJECT_NAME    = SL-3 R/B
OBJECT_ID      = 1977-057B
CENTER_NAME    = EARTH
REF_FRAME      = TEME
TIME_SYSTEM    = UTC
MEAN_ELEMENT_THEORY = SGP/SGP4

EPOCH          = 2026-03-16T06:11:25.706688
MEAN_MOTION    = 15.45695000
ECCENTRICITY   = .00061558
INCLINATION    = 97.5775
RA_OF_ASC_NODE = 247.4694
ARG_OF_PERICENTER = 256.5761
MEAN_ANOMALY   = 103.4802

EPHEMERIS_TYPE = 0
CLASSIFICATION_TYPE = U
NORAD_CAT_ID   = 10114
ELEMENT_SET_NO = 999
REV_AT_EPOCH   = 66934
BSTAR          = .27579631E-3
MEAN_MOTION_DOT = .13234E-3
MEAN_MOTION_DDOT = 0

CCSDS_OMM_VERS = 2.0
CREATION_DATE  = 
ORIGINATOR     = 

OBJECT_NAME    = SEASAT 1
OBJECT_ID      = 1978-064A
CENTER_NAME    = EARTH
REF_FRAME      = TEME
TIME_SYSTEM    = UTC
MEAN_ELEMENT_THEORY = SGP/SGP4

EPOCH          = 2026-03-16T03:16:45.310656
MEAN_MOTION    = 14.46165810
ECCENTRICITY   = .00024101
INCLINATION    = 108.0096
RA_OF_ASC_NODE = 139.0278
ARG_OF_PERICENTER = 283.2094
MEAN_ANOMALY   = 76.8783

EPHEMERIS_TYPE = 0
CLASSIFICATION_TYPE = U
NORAD_CAT_ID   = 10967
ELEMENT_SET_NO = 999
REV_AT_EPOCH   = 50744
BSTAR          = .10645024E-3
MEAN_MOTION_DOT = .243E-5
MEAN_MOTION_DDOT = 0

CCSDS_OMM_VERS = 2.0
CREATION_DATE  = 
ORIGINATOR     = 

OBJECT_NAME    = SL-14 R/B
OBJECT_ID      = 1979-011B
CENTER_NAME    = EARTH
REF_FRAME      = TEME
TIME_SYSTEM    = UTC
MEAN_ELEMENT_THEORY = SGP/SGP4

EPOCH          = 2026-03-16T02:04:11.757216
MEAN_MOTION    = 14.91916494
ECCENTRICITY   = .00170405
INCLINATION    = 82.5203
RA_OF_ASC_NODE = 90.4993
ARG_OF_PERICENTER = 40.6775
MEAN_ANOMALY   = 319.5713

EPHEMERIS_TYPE = 0
CLASSIFICATION_TYPE = U
NORAD_CAT_ID   = 11267
ELEMENT_SET_NO = 999
REV_AT_EPOCH   = 52973
BSTAR          = .61663E-4
MEAN_MOTION_DOT = .651E-5
MEAN_MOTION_DDOT = 0

CCSDS_OMM_VERS = 2.0
CREATION_DATE  = 
ORIGINATOR     = 

OBJECT_NAME    = SL-8 R/B
OBJECT_ID      = 1979-089B
CENTER_NAME    = EARTH
REF_FRAME      = TEME
TIME_SYSTEM    = UTC
MEAN_ELEMENT_THEORY = SGP/SGP4

EPOCH          = 2026-03-16T06:22:00.185088
MEAN_MOTION    = 14.42355564
ECCENTRICITY   = .00170625
INCLINATION    = 74.0668
RA_OF_ASC_NODE = 78.8698
ARG_OF_PERICENTER = 250.8616
MEAN_ANOMALY   = 109.0694

EPHEMERIS_TYPE = 0
CLASSIFICATION_TYPE = U
NORAD_CAT_ID   = 11574
ELEMENT_SET_NO = 999
REV_AT_EPOCH   = 43705
BSTAR          = .10749446E-3
MEAN_MOTION_DOT = .329E-5
MEAN_MOTION_DDOT = 0

CCSDS_OMM_VERS = 2.0
CREATION_DATE  = 
ORIGINATOR     = 

OBJECT_NAME    = SL-14 R/B
OBJECT_ID      = 1980-005B
CENTER_NAME    = EARTH
REF_FRAME      = TEME
TIME_SYSTEM    = UTC
MEAN_ELEMENT_THEORY = SGP/SGP4

EPOCH          = 2026-03-16T02:29:00.785184
MEAN_MOTION    = 14.90938047
ECCENTRICITY   = .00166897
INCLINATION    = 82.5134
RA_OF_ASC_NODE = 301.1518
ARG_OF_PERICENTER = 137.9141
MEAN_ANOMALY   = 222.3363

EPHEMERIS_TYPE = 0
CLASSIFICATION_TYPE = U
NORAD_CAT_ID   = 11672
ELEMENT_SET_NO = 999
REV_AT_EPOCH   = 47744
BSTAR          = .52483907E-4
MEAN_MOTION_DOT = .545E-5
MEAN_MOTION_DDOT = 0

CCSDS_OMM_VERS = 2.0
CREATION_DATE  = 
ORIGINATOR     = 

OBJECT_NAME    = SL-8 R/B
OBJECT_ID      = 1981-003B
CENTER_NAME    = EARTH
REF_FRAME      = TEME
TIME_SYSTEM    = UTC
MEAN_ELEMENT_THEORY = SGP/SGP4

EPOCH          = 2026-03-16T00:38:40.017120
MEAN_MOTION    = 15.11251568
ECCENTRICITY   = .02615392
INCLINATION    = 82.9376
RA_OF_ASC_NODE = 284.1638
ARG_OF_PERICENTER = 156.5551
MEAN_ANOMALY   = 204.7869

EPHEMERIS_TYPE = 0
CLASSIFICATION_TYPE = U
NORAD_CAT_ID   = 12139
ELEMENT_SET_NO = 999
REV_AT_EPOCH   = 31563
BSTAR          = .56494303E-3
MEAN_MOTION_DOT = .22176E-3
MEAN_MOTION_DDOT = 0

CCSDS_OMM_VERS = 2.0
CREATION_DATE  = 
ORIGINATOR     = 

OBJECT_NAME    = SL-3 R/B
OBJECT_ID      = 1981-046B
CENTER_NAME    = EARTH
REF_FRAME      = TEME
TIME_SYSTEM    = UTC
MEAN_ELEMENT_THEORY = SGP/SGP4

EPOCH          = 2026-03-16T06:33:27.647424
MEAN_MOTION    = 15.42172793
ECCENTRICITY   = .00190158
INCLINATION    = 81.2289
RA_OF_ASC_NODE = 281.8374
ARG_OF_PERICENTER = 359.4821
MEAN_ANOMALY   = 0.6398

EPHEMERIS_TYPE = 0
CLASSIFICATION_TYPE = U
NORAD_CAT_ID   = 12465
ELEMENT_SET_NO = 999
REV_AT_EPOCH   = 43944
BSTAR          = .26020753E-3
MEAN_MOTION_DOT = .11259E-3
MEAN_MOTION_DDOT = 0

CCSDS_OMM_VERS = 2.0
CREATION_DATE  = 
ORIGINATOR     = 

OBJECT_NAME    = SL-3 R/B
OBJECT_ID      = 1981-103B
CENTER_NAME    = EARTH
REF_FRAME      = TEME
TIME_SYSTEM    = UTC
MEAN_ELEMENT_THEORY = SGP/SGP4

EPOCH          = 2026-03-16T06:48:03.164544
MEAN_MOTION    = 15.21464740
ECCENTRICITY   = .00124636
INCLINATION    = 81.1596
RA_OF_ASC_NODE = 205.6974
ARG_OF_PERICENTER = 263.0070
MEAN_ANOMALY   = 96.9744

EPHEMERIS_TYPE = 0
CLASSIFICATION_TYPE = U
NORAD_CAT_ID   = 12904
ELEMENT_SET_NO = 999
REV_AT_EPOCH   = 97423
BSTAR          = .24618165E-3
MEAN_MOTION_DOT = .5568E-4
MEAN_MOTION_DDOT = 0

CCSDS_OMM_VERS = 2.0
CREATION_DATE  = 
ORIGINATOR     = 

OBJECT_NAME    = SL-3 R/B
OBJECT_ID      = 1982-013B
CENTER_NAME    = EARTH
REF_FRAME      = TEME
TIME_SYSTEM    = UTC
MEAN_ELEMENT_THEORY = SGP/SGP4

EPOCH          = 2026-03-16T06:55:46.057728
MEAN_MOTION    = 15.22085691
ECCENTRICITY   = .0023021
INCLINATION    = 81.1762
RA_OF_ASC_NODE = 153.0372
ARG_OF_PERICENTER = 155.4034
MEAN_ANOMALY   = 204.8302

EPHEMERIS_TYPE = 0
CLASSIFICATION_TYPE = U
NORAD_CAT_ID   = 13068
ELEMENT_SET_NO = 999
REV_AT_EPOCH   = 40535
BSTAR          = .21278658E-3
MEAN_MOTION_DOT = .4931E-4
MEAN_MOTION_DDOT = 0

CCSDS_OMM_VERS = 2.0
CREATION_DATE  = 
ORIGINATOR     = 

OBJECT_NAME    = SL-3 R/B
OBJECT_ID      = 1982-039B
CENTER_NAME    = EARTH
REF_FRAME      = TEME
TIME_SYSTEM    = UTC
MEAN_ELEMENT_THEORY = SGP/SGP4

EPOCH          = 2026-03-16T06:47:22.548768
MEAN_MOTION    = 15.10122538
ECCENTRICITY   = .00294324
INCLINATION    = 81.1577
RA_OF_ASC_NODE = 208.3604
ARG_OF_PERICENTER = 302.8876
MEAN_ANOMALY   = 56.9518

EPHEMERIS_TYPE = 0
CLASSIFICATION_TYPE = U
NORAD_CAT_ID   = 13154
ELEMENT_SET_NO = 999
REV_AT_EPOCH   = 38263
BSTAR          = .17066879E-3
MEAN_MOTION_DOT = .2832E-4
MEAN_MOTION_DDOT = 0

